FLOCK 4Q-16             
1 58271U 23174R   26186.18399480  .00030277  00000+0  53873-3 0  9992
2 58271  97.3829 274.7190 0007029 105.7178 254.4850 15.50076029148365
FLOCK 4Q-11             
1 58273U 23174T   26186.16010551  .00038735  00000+0  67790-3 0  9991
2 58273  97.3862 275.3182 0006828 101.5724 258.6295 15.50499053148375
FLOCK 4Q-28             
1 58280U 23174AA  26186.18632354  .00052462  00000+0  74331-3 0  9994
2 58280  97.3884 277.9889 0005573  92.8100 267.3793 15.56302133148542
FLOCK 4Q-27             
1 58282U 23174AC  26184.77495542  .00101633  00000+0  14249-2 0  9991
2 58282  97.3809 275.9423 0004799  98.0377 262.1423 15.56401612148338
FLOCK 4Q-7              
1 58318U 23174BQ  26186.20994579  .00056235  00000+0  78100-3 0  9999
2 58318  97.3910 278.3254 0005473  79.9664 280.2208 15.56828102148550
FLOCK 4Q-2              
1 58320U 23174BS  26186.27379319  .00033663  00000+0  59020-3 0  9998
2 58320  97.3834 275.1518 0005743  81.7357 278.4545 15.50483665148408
FLOCK 4Q-9              
1 58322U 23174BU  26185.77743350  .00046485  00000+0  80123-3 0  9998
2 58322  97.3860 274.7434 0006646  84.8845 275.3165 15.50892595148310
FLOCK 4Q-4              
1 58327U 23174BZ  26185.78193271  .00038088  00000+0  69087-3 0  9991
2 58327  97.3820 273.8919 0006651 104.6884 255.5104 15.49485021148288
FLOCK 4Q-13             
1 58328U 23174CA  26186.04498885  .00041104  00000+0  66931-3 0  9999
2 58328  97.4003 277.3920 0006653  87.0268 273.1746 15.52517509148443
FLOCK 4BE-18            
1 60480U 24149N   26185.53569073  .00044602  00000+0  10259-2 0  9992
2 60480  97.3719 269.4528 0004335 175.7770 184.3515 15.42509485104983
FLOCK 4BE-7             
1 60481U 24149P   26186.14410370  .00038963  00000+0  93941-3 0  9999
2 60481  97.3752 269.3746 0003575 176.2324 183.8951 15.41124277105012
FLOCK 4BE-36            
1 60486U 24149U   26186.14610528  .00028121  00000+0  63205-3 0  9996
2 60486  97.3738 270.7961 0003967 180.9130 179.2111 15.43300611105127
FLOCK 4BE-25            
1 60487U 24149V   26186.03254181  .00023808  00000+0  61081-3 0  9991
2 60487  97.3790 269.3090 0002971 165.3909 194.7423 15.39333591104987
FLOCK 4BE-31            
1 60488U 24149W   26186.16021238  .00034015  00000+0  72486-3 0  9994
2 60488  97.3792 271.7214 0003021 176.4402 183.6869 15.44847066105157
FLOCK 4BE-20            
1 60489U 24149X   26186.13490253  .00025376  00000+0  66618-3 0  9999
2 60489  97.3689 268.2457 0004150 181.5629 178.5604 15.38609551104972
FLOCK 4BE-23            
1 60490U 24149Y   26186.12989231  .00023630  00000+0  62964-3 0  9990
2 60490  97.3774 268.6268 0003705 184.9278 175.1931 15.38167122104952
