{"fetched_at":"2026-07-05T17:36:11.010Z","source":"https://celestrak.org/NORAD/elements/gp.php?GROUP=planet&FORMAT=JSON","constellation":"superdove","records":[{"OBJECT_NAME":"FLOCK 4Q-16","OBJECT_ID":"2023-174R","EPOCH":"2026-07-05T04:24:57.150720","CLASSIFICATION_TYPE":"U","MEAN_MOTION":15.50076029,"ECCENTRICITY":0.00070296,"INCLINATION":97.3829,"RA_OF_ASC_NODE":274.719,"ARG_OF_PERICENTER":105.7178,"MEAN_ANOMALY":254.485,"EPHEMERIS_TYPE":0,"NORAD_CAT_ID":58271,"ELEMENT_SET_NO":999,"REV_AT_EPOCH":14836,"BSTAR":0.00053873484,"MEAN_MOTION_DOT":0.00030277,"MEAN_MOTION_DDOT":0},{"OBJECT_NAME":"FLOCK 4Q-11","OBJECT_ID":"2023-174T","EPOCH":"2026-07-05T03:50:33.116064","CLASSIFICATION_TYPE":"U","MEAN_MOTION":15.50499053,"ECCENTRICITY":0.00068283,"INCLINATION":97.3862,"RA_OF_ASC_NODE":275.3182,"ARG_OF_PERICENTER":101.5724,"MEAN_ANOMALY":258.6295,"EPHEMERIS_TYPE":0,"NORAD_CAT_ID":58273,"ELEMENT_SET_NO":999,"REV_AT_EPOCH":14837,"BSTAR":0.00067790469,"MEAN_MOTION_DOT":0.00038735,"MEAN_MOTION_DDOT":0},{"OBJECT_NAME":"FLOCK 4Q-28","OBJECT_ID":"2023-174AA","EPOCH":"2026-07-05T04:28:18.353856","CLASSIFICATION_TYPE":"U","MEAN_MOTION":15.56302133,"ECCENTRICITY":0.00055738,"INCLINATION":97.3884,"RA_OF_ASC_NODE":277.9889,"ARG_OF_PERICENTER":92.81,"MEAN_ANOMALY":267.3793,"EPHEMERIS_TYPE":0,"NORAD_CAT_ID":58280,"ELEMENT_SET_NO":999,"REV_AT_EPOCH":14854,"BSTAR":0.00074330999,"MEAN_MOTION_DOT":0.00052462,"MEAN_MOTION_DDOT":0},{"OBJECT_NAME":"FLOCK 4Q-27","OBJECT_ID":"2023-174AC","EPOCH":"2026-07-03T18:35:56.148288","CLASSIFICATION_TYPE":"U","MEAN_MOTION":15.56401612,"ECCENTRICITY":0.00047997,"INCLINATION":97.3809,"RA_OF_ASC_NODE":275.9423,"ARG_OF_PERICENTER":98.0377,"MEAN_ANOMALY":262.1423,"EPHEMERIS_TYPE":0,"NORAD_CAT_ID":58282,"ELEMENT_SET_NO":999,"REV_AT_EPOCH":14833,"BSTAR":0.0014249207,"MEAN_MOTION_DOT":0.00101633,"MEAN_MOTION_DDOT":0},{"OBJECT_NAME":"FLOCK 4Q-7","OBJECT_ID":"2023-174BQ","EPOCH":"2026-07-05T05:02:19.316256","CLASSIFICATION_TYPE":"U","MEAN_MOTION":15.56828102,"ECCENTRICITY":0.00054732,"INCLINATION":97.391,"RA_OF_ASC_NODE":278.3254,"ARG_OF_PERICENTER":79.9664,"MEAN_ANOMALY":280.2208,"EPHEMERIS_TYPE":0,"NORAD_CAT_ID":58318,"ELEMENT_SET_NO":999,"REV_AT_EPOCH":14855,"BSTAR":0.00078100235,"MEAN_MOTION_DOT":0.00056235,"MEAN_MOTION_DDOT":0},{"OBJECT_NAME":"FLOCK 4Q-2","OBJECT_ID":"2023-174BS","EPOCH":"2026-07-05T06:34:15.731616","CLASSIFICATION_TYPE":"U","MEAN_MOTION":15.50483665,"ECCENTRICITY":0.00057438,"INCLINATION":97.3834,"RA_OF_ASC_NODE":275.1518,"ARG_OF_PERICENTER":81.7357,"MEAN_ANOMALY":278.4545,"EPHEMERIS_TYPE":0,"NORAD_CAT_ID":58320,"ELEMENT_SET_NO":999,"REV_AT_EPOCH":14840,"BSTAR":0.0005902033,"MEAN_MOTION_DOT":0.00033663,"MEAN_MOTION_DDOT":0},{"OBJECT_NAME":"FLOCK 4Q-9","OBJECT_ID":"2023-174BU","EPOCH":"2026-07-04T18:39:30.254400","CLASSIFICATION_TYPE":"U","MEAN_MOTION":15.50892595,"ECCENTRICITY":0.0006646,"INCLINATION":97.386,"RA_OF_ASC_NODE":274.7434,"ARG_OF_PERICENTER":84.8845,"MEAN_ANOMALY":275.3165,"EPHEMERIS_TYPE":0,"NORAD_CAT_ID":58322,"ELEMENT_SET_NO":999,"REV_AT_EPOCH":14831,"BSTAR":0.0008012254,"MEAN_MOTION_DOT":0.00046485,"MEAN_MOTION_DDOT":0},{"OBJECT_NAME":"FLOCK 4Q-4","OBJECT_ID":"2023-174BZ","EPOCH":"2026-07-04T18:45:58.986144","CLASSIFICATION_TYPE":"U","MEAN_MOTION":15.49485021,"ECCENTRICITY":0.0006651,"INCLINATION":97.382,"RA_OF_ASC_NODE":273.8919,"ARG_OF_PERICENTER":104.6884,"MEAN_ANOMALY":255.5104,"EPHEMERIS_TYPE":0,"NORAD_CAT_ID":58327,"ELEMENT_SET_NO":999,"REV_AT_EPOCH":14828,"BSTAR":0.00069086921,"MEAN_MOTION_DOT":0.00038088,"MEAN_MOTION_DDOT":0},{"OBJECT_NAME":"FLOCK 4Q-13","OBJECT_ID":"2023-174CA","EPOCH":"2026-07-05T01:04:47.036640","CLASSIFICATION_TYPE":"U","MEAN_MOTION":15.52517509,"ECCENTRICITY":0.00066539,"INCLINATION":97.4003,"RA_OF_ASC_NODE":277.392,"ARG_OF_PERICENTER":87.0268,"MEAN_ANOMALY":273.1746,"EPHEMERIS_TYPE":0,"NORAD_CAT_ID":58328,"ELEMENT_SET_NO":999,"REV_AT_EPOCH":14844,"BSTAR":0.00066931401,"MEAN_MOTION_DOT":0.00041104,"MEAN_MOTION_DDOT":0},{"OBJECT_NAME":"FLOCK 4BE-18","OBJECT_ID":"2024-149N","EPOCH":"2026-07-04T12:51:23.679072","CLASSIFICATION_TYPE":"U","MEAN_MOTION":15.42509485,"ECCENTRICITY":0.0004335,"INCLINATION":97.3719,"RA_OF_ASC_NODE":269.4528,"ARG_OF_PERICENTER":175.777,"MEAN_ANOMALY":184.3515,"EPHEMERIS_TYPE":0,"NORAD_CAT_ID":60480,"ELEMENT_SET_NO":999,"REV_AT_EPOCH":10498,"BSTAR":0.0010259358,"MEAN_MOTION_DOT":0.00044602,"MEAN_MOTION_DDOT":0},{"OBJECT_NAME":"FLOCK 4BE-7","OBJECT_ID":"2024-149P","EPOCH":"2026-07-05T03:27:30.559680","CLASSIFICATION_TYPE":"U","MEAN_MOTION":15.41124277,"ECCENTRICITY":0.0003575,"INCLINATION":97.3752,"RA_OF_ASC_NODE":269.3746,"ARG_OF_PERICENTER":176.2324,"MEAN_ANOMALY":183.8951,"EPHEMERIS_TYPE":0,"NORAD_CAT_ID":60481,"ELEMENT_SET_NO":999,"REV_AT_EPOCH":10501,"BSTAR":0.00093941044,"MEAN_MOTION_DOT":0.00038963,"MEAN_MOTION_DDOT":0},{"OBJECT_NAME":"FLOCK 4BE-36","OBJECT_ID":"2024-149U","EPOCH":"2026-07-05T03:30:23.496192","CLASSIFICATION_TYPE":"U","MEAN_MOTION":15.43300611,"ECCENTRICITY":0.00039673,"INCLINATION":97.3738,"RA_OF_ASC_NODE":270.7961,"ARG_OF_PERICENTER":180.913,"MEAN_ANOMALY":179.2111,"EPHEMERIS_TYPE":0,"NORAD_CAT_ID":60486,"ELEMENT_SET_NO":999,"REV_AT_EPOCH":10512,"BSTAR":0.00063205278,"MEAN_MOTION_DOT":0.00028121,"MEAN_MOTION_DDOT":0},{"OBJECT_NAME":"FLOCK 4BE-25","OBJECT_ID":"2024-149V","EPOCH":"2026-07-05T00:46:51.612384","CLASSIFICATION_TYPE":"U","MEAN_MOTION":15.39333591,"ECCENTRICITY":0.00029716,"INCLINATION":97.379,"RA_OF_ASC_NODE":269.309,"ARG_OF_PERICENTER":165.3909,"MEAN_ANOMALY":194.7423,"EPHEMERIS_TYPE":0,"NORAD_CAT_ID":60487,"ELEMENT_SET_NO":999,"REV_AT_EPOCH":10498,"BSTAR":0.00061080608,"MEAN_MOTION_DOT":0.00023808,"MEAN_MOTION_DDOT":0},{"OBJECT_NAME":"FLOCK 4BE-31","OBJECT_ID":"2024-149W","EPOCH":"2026-07-05T03:50:42.349632","CLASSIFICATION_TYPE":"U","MEAN_MOTION":15.44847066,"ECCENTRICITY":0.00030213,"INCLINATION":97.3792,"RA_OF_ASC_NODE":271.7214,"ARG_OF_PERICENTER":176.4402,"MEAN_ANOMALY":183.6869,"EPHEMERIS_TYPE":0,"NORAD_CAT_ID":60488,"ELEMENT_SET_NO":999,"REV_AT_EPOCH":10515,"BSTAR":0.00072486163,"MEAN_MOTION_DOT":0.00034015,"MEAN_MOTION_DDOT":0},{"OBJECT_NAME":"FLOCK 4BE-20","OBJECT_ID":"2024-149X","EPOCH":"2026-07-05T03:14:15.578592","CLASSIFICATION_TYPE":"U","MEAN_MOTION":15.38609551,"ECCENTRICITY":0.00041501,"INCLINATION":97.3689,"RA_OF_ASC_NODE":268.2457,"ARG_OF_PERICENTER":181.5629,"MEAN_ANOMALY":178.5604,"EPHEMERIS_TYPE":0,"NORAD_CAT_ID":60489,"ELEMENT_SET_NO":999,"REV_AT_EPOCH":10497,"BSTAR":0.0006661848,"MEAN_MOTION_DOT":0.00025376,"MEAN_MOTION_DDOT":0},{"OBJECT_NAME":"FLOCK 4BE-23","OBJECT_ID":"2024-149Y","EPOCH":"2026-07-05T03:07:02.695584","CLASSIFICATION_TYPE":"U","MEAN_MOTION":15.38167122,"ECCENTRICITY":0.00037055,"INCLINATION":97.3774,"RA_OF_ASC_NODE":268.6268,"ARG_OF_PERICENTER":184.9278,"MEAN_ANOMALY":175.1931,"EPHEMERIS_TYPE":0,"NORAD_CAT_ID":60490,"ELEMENT_SET_NO":999,"REV_AT_EPOCH":10495,"BSTAR":0.00062963574,"MEAN_MOTION_DOT":0.0002363,"MEAN_MOTION_DDOT":0}]}
